LVM3 R/B                
1 66310U 25249A   25335.33935942  .00047432 -36454-6  12816-2 0  9993
2 66310  21.3490 143.9958 6668792 208.0487  89.1049  3.14269232   923
CMS-03 (GSAT-7R)        
1 66311U 25249B   25336.02215537 -.00000236  00000+0  00000+0 0  9993
2 66311   0.1679 272.0630 0004014 195.7202  64.8082  1.00268583   378
YAOGAN-46               
1 66313U 25250A   25327.07225435 -.00000007  00000+0  00000+0 0  9996
2 66313  20.0335 104.8243 0049237 135.6954 224.7061  5.35115916  1148
SENTINEL-1D             
1 66315U 25251A   25336.02833639  .00000267  00000+0  65400-4 0  9992
2 66315  98.1924 341.1996 0002558 156.7626 203.3690 14.59909618  3976
QPS-SAR-14 (YACHIHOKO-I)
1 66316U 25252A   25335.93204363  .00006864  00000+0  59360-3 0  9995
2 66316  42.0030 134.6343 0006919  75.2493 284.9098 14.97516948  3919
ELECTRON R/B            
1 66317U 25252B   25333.88053486  .01669799  79110-5  19143-2 0  9997
2 66317  41.9889 130.1303 0124668  46.1701 314.9386 15.94243293  3785
STARLINK-35442          
1 66319U 25253A   25336.16671295  .00066445  00000+0  15870-2 0  9995
2 66319  43.0007  46.8027 0001283 283.1417 264.2727 15.40644955  5321
STARLINK-34616          
1 66320U 25253B   25335.53659348  .00096659  00000+0  16322-2 0  9995
2 66320  43.0003  50.2572 0002029 284.6496  75.4139 15.50595365  5279
STARLINK-34615          
1 66321U 25253C   25335.55675008  .00159038  00000+0  16579-2 0  9994
2 66321  42.9996  49.5325 0002376   5.4675 354.6216 15.63263158  5206
STARLINK-35292          
1 66322U 25253D   25335.66671296  .00120998  00000+0  28658-2 0  9996
2 66322  43.0004  49.5938 0002080 294.3213  33.7788 15.40618661  5148
STARLINK-35309          
1 66323U 25253E   25335.59826058  .00099939  00000+0  16871-2 0  9991
2 66323  43.0003  49.8592 0002132 250.9750 109.0879 15.50587461  5208
STARLINK-35506          
1 66324U 25253F   25335.21314654  .00167285  00000+0  27895-2 0  9993
2 66324  42.9999  52.1305 0001459 261.0822  98.9873 15.50651952  5144
