CCSDS_OMM_VERS = 2.0
CREATION_DATE  = 
ORIGINATOR     = 

OBJECT_NAME    = LVM3 R/B
OBJECT_ID      = 2025-249A
CENTER_NAME    = EARTH
REF_FRAME      = TEME
TIME_SYSTEM    = UTC
MEAN_ELEMENT_THEORY = SGP/SGP4

EPOCH          = 2025-12-01T08:08:40.653888
MEAN_MOTION    = 3.14269232
ECCENTRICITY   = .66687925
INCLINATION    = 21.3490
RA_OF_ASC_NODE = 143.9958
ARG_OF_PERICENTER = 208.0487
MEAN_ANOMALY   = 89.1049

EPHEMERIS_TYPE = 0
CLASSIFICATION_TYPE = U
NORAD_CAT_ID   = 66310
ELEMENT_SET_NO = 999
REV_AT_EPOCH   = 92
BSTAR          = .12816185E-2
MEAN_MOTION_DOT = .47432E-3
MEAN_MOTION_DDOT = -.364541E-6

CCSDS_OMM_VERS = 2.0
CREATION_DATE  = 
ORIGINATOR     = 

OBJECT_NAME    = CMS-03 (GSAT-7R)
OBJECT_ID      = 2025-249B
CENTER_NAME    = EARTH
REF_FRAME      = TEME
TIME_SYSTEM    = UTC
MEAN_ELEMENT_THEORY = SGP/SGP4

EPOCH          = 2025-12-02T00:31:54.223968
MEAN_MOTION    = 1.00268583
ECCENTRICITY   = .0004014
INCLINATION    = 0.1679
RA_OF_ASC_NODE = 272.0630
ARG_OF_PERICENTER = 195.7202
MEAN_ANOMALY   = 64.8082

EPHEMERIS_TYPE = 0
CLASSIFICATION_TYPE = U
NORAD_CAT_ID   = 66311
ELEMENT_SET_NO = 999
REV_AT_EPOCH   = 37
BSTAR          = 0
MEAN_MOTION_DOT = -.236E-5
MEAN_MOTION_DDOT = 0

CCSDS_OMM_VERS = 2.0
CREATION_DATE  = 
ORIGINATOR     = 

OBJECT_NAME    = YAOGAN-46
OBJECT_ID      = 2025-250A
CENTER_NAME    = EARTH
REF_FRAME      = TEME
TIME_SYSTEM    = UTC
MEAN_ELEMENT_THEORY = SGP/SGP4

EPOCH          = 2025-11-23T01:44:02.775840
MEAN_MOTION    = 5.35115916
ECCENTRICITY   = .00492374
INCLINATION    = 20.0335
RA_OF_ASC_NODE = 104.8243
ARG_OF_PERICENTER = 135.6954
MEAN_ANOMALY   = 224.7061

EPHEMERIS_TYPE = 0
CLASSIFICATION_TYPE = U
NORAD_CAT_ID   = 66313
ELEMENT_SET_NO = 999
REV_AT_EPOCH   = 114
BSTAR          = 0
MEAN_MOTION_DOT = -.7E-7
MEAN_MOTION_DDOT = 0

CCSDS_OMM_VERS = 2.0
CREATION_DATE  = 
ORIGINATOR     = 

OBJECT_NAME    = SENTINEL-1D
OBJECT_ID      = 2025-251A
CENTER_NAME    = EARTH
REF_FRAME      = TEME
TIME_SYSTEM    = UTC
MEAN_ELEMENT_THEORY = SGP/SGP4

EPOCH          = 2025-12-02T00:40:48.264096
MEAN_MOTION    = 14.59909618
ECCENTRICITY   = .0002558
INCLINATION    = 98.1924
RA_OF_ASC_NODE = 341.1996
ARG_OF_PERICENTER = 156.7626
MEAN_ANOMALY   = 203.3690

EPHEMERIS_TYPE = 0
CLASSIFICATION_TYPE = U
NORAD_CAT_ID   = 66315
ELEMENT_SET_NO = 999
REV_AT_EPOCH   = 397
BSTAR          = .654E-4
MEAN_MOTION_DOT = .267E-5
MEAN_MOTION_DDOT = 0

CCSDS_OMM_VERS = 2.0
CREATION_DATE  = 
ORIGINATOR     = 

OBJECT_NAME    = QPS-SAR-14 (YACHIHOKO-I)
OBJECT_ID      = 2025-252A
CENTER_NAME    = EARTH
REF_FRAME      = TEME
TIME_SYSTEM    = UTC
MEAN_ELEMENT_THEORY = SGP/SGP4

EPOCH          = 2025-12-01T22:22:08.569632
MEAN_MOTION    = 14.97516948
ECCENTRICITY   = .0006919
INCLINATION    = 42.0030
RA_OF_ASC_NODE = 134.6343
ARG_OF_PERICENTER = 75.2493
MEAN_ANOMALY   = 284.9098

EPHEMERIS_TYPE = 0
CLASSIFICATION_TYPE = U
NORAD_CAT_ID   = 66316
ELEMENT_SET_NO = 999
REV_AT_EPOCH   = 391
BSTAR          = .5936E-3
MEAN_MOTION_DOT = .6864E-4
MEAN_MOTION_DDOT = 0

CCSDS_OMM_VERS = 2.0
CREATION_DATE  = 
ORIGINATOR     = 

OBJECT_NAME    = ELECTRON R/B
OBJECT_ID      = 2025-252B
CENTER_NAME    = EARTH
REF_FRAME      = TEME
TIME_SYSTEM    = UTC
MEAN_ELEMENT_THEORY = SGP/SGP4

EPOCH          = 2025-11-29T21:07:58.211904
MEAN_MOTION    = 15.94243293
ECCENTRICITY   = .01246685
INCLINATION    = 41.9889
RA_OF_ASC_NODE = 130.1303
ARG_OF_PERICENTER = 46.1701
MEAN_ANOMALY   = 314.9386

EPHEMERIS_TYPE = 0
CLASSIFICATION_TYPE = U
NORAD_CAT_ID   = 66317
ELEMENT_SET_NO = 999
REV_AT_EPOCH   = 378
BSTAR          = .19142518E-2
MEAN_MOTION_DOT = .1669799E-1
MEAN_MOTION_DDOT = .7910989E-5

CCSDS_OMM_VERS = 2.0
CREATION_DATE  = 
ORIGINATOR     = 

OBJECT_NAME    = STARLINK-35442
OBJECT_ID      = 2025-253A
CENTER_NAME    = EARTH
REF_FRAME      = TEME
TIME_SYSTEM    = UTC
MEAN_ELEMENT_THEORY = SGP/SGP4

EPOCH          = 2025-12-02T04:00:03.998880
MEAN_MOTION    = 15.40644955
ECCENTRICITY   = .0001283
INCLINATION    = 43.0007
RA_OF_ASC_NODE = 46.8027
ARG_OF_PERICENTER = 283.1417
MEAN_ANOMALY   = 264.2727

EPHEMERIS_TYPE = 0
CLASSIFICATION_TYPE = U
NORAD_CAT_ID   = 66319
ELEMENT_SET_NO = 999
REV_AT_EPOCH   = 532
BSTAR          = .1587E-2
MEAN_MOTION_DOT = .66445E-3
MEAN_MOTION_DDOT = 0

CCSDS_OMM_VERS = 2.0
CREATION_DATE  = 
ORIGINATOR     = 

OBJECT_NAME    = STARLINK-34616
OBJECT_ID      = 2025-253B
CENTER_NAME    = EARTH
REF_FRAME      = TEME
TIME_SYSTEM    = UTC
MEAN_ELEMENT_THEORY = SGP/SGP4

EPOCH          = 2025-12-01T12:52:41.676672
MEAN_MOTION    = 15.50595365
ECCENTRICITY   = .00020299
INCLINATION    = 43.0003
RA_OF_ASC_NODE = 50.2572
ARG_OF_PERICENTER = 284.6496
MEAN_ANOMALY   = 75.4139

EPHEMERIS_TYPE = 0
CLASSIFICATION_TYPE = U
NORAD_CAT_ID   = 66320
ELEMENT_SET_NO = 999
REV_AT_EPOCH   = 527
BSTAR          = .16321676E-2
MEAN_MOTION_DOT = .96659E-3
MEAN_MOTION_DDOT = 0

CCSDS_OMM_VERS = 2.0
CREATION_DATE  = 
ORIGINATOR     = 

OBJECT_NAME    = STARLINK-34615
OBJECT_ID      = 2025-253C
CENTER_NAME    = EARTH
REF_FRAME      = TEME
TIME_SYSTEM    = UTC
MEAN_ELEMENT_THEORY = SGP/SGP4

EPOCH          = 2025-12-01T13:21:43.206912
MEAN_MOTION    = 15.63263158
ECCENTRICITY   = .00023769
INCLINATION    = 42.9996
RA_OF_ASC_NODE = 49.5325
ARG_OF_PERICENTER = 5.4675
MEAN_ANOMALY   = 354.6216

EPHEMERIS_TYPE = 0
CLASSIFICATION_TYPE = U
NORAD_CAT_ID   = 66321
ELEMENT_SET_NO = 999
REV_AT_EPOCH   = 520
BSTAR          = .16579406E-2
MEAN_MOTION_DOT = .159038E-2
MEAN_MOTION_DDOT = 0

CCSDS_OMM_VERS = 2.0
CREATION_DATE  = 
ORIGINATOR     = 

OBJECT_NAME    = STARLINK-35292
OBJECT_ID      = 2025-253D
CENTER_NAME    = EARTH
REF_FRAME      = TEME
TIME_SYSTEM    = UTC
MEAN_ELEMENT_THEORY = SGP/SGP4

EPOCH          = 2025-12-01T16:00:03.999744
MEAN_MOTION    = 15.40618661
ECCENTRICITY   = .00020803
INCLINATION    = 43.0004
RA_OF_ASC_NODE = 49.5938
ARG_OF_PERICENTER = 294.3213
MEAN_ANOMALY   = 33.7788

EPHEMERIS_TYPE = 0
CLASSIFICATION_TYPE = U
NORAD_CAT_ID   = 66322
ELEMENT_SET_NO = 999
REV_AT_EPOCH   = 514
BSTAR          = .28657716E-2
MEAN_MOTION_DOT = .120998E-2
MEAN_MOTION_DDOT = 0

CCSDS_OMM_VERS = 2.0
CREATION_DATE  = 
ORIGINATOR     = 

OBJECT_NAME    = STARLINK-35309
OBJECT_ID      = 2025-253E
CENTER_NAME    = EARTH
REF_FRAME      = TEME
TIME_SYSTEM    = UTC
MEAN_ELEMENT_THEORY = SGP/SGP4

EPOCH          = 2025-12-01T14:21:29.714112
MEAN_MOTION    = 15.50587461
ECCENTRICITY   = .00021322
INCLINATION    = 43.0003
RA_OF_ASC_NODE = 49.8592
ARG_OF_PERICENTER = 250.9750
MEAN_ANOMALY   = 109.0879

EPHEMERIS_TYPE = 0
CLASSIFICATION_TYPE = U
NORAD_CAT_ID   = 66323
ELEMENT_SET_NO = 999
REV_AT_EPOCH   = 520
BSTAR          = .16871215E-2
MEAN_MOTION_DOT = .99939E-3
MEAN_MOTION_DDOT = 0

CCSDS_OMM_VERS = 2.0
CREATION_DATE  = 
ORIGINATOR     = 

OBJECT_NAME    = STARLINK-35506
OBJECT_ID      = 2025-253F
CENTER_NAME    = EARTH
REF_FRAME      = TEME
TIME_SYSTEM    = UTC
MEAN_ELEMENT_THEORY = SGP/SGP4

EPOCH          = 2025-12-01T05:06:55.861056
MEAN_MOTION    = 15.50651952
ECCENTRICITY   = .0001459
INCLINATION    = 42.9999
RA_OF_ASC_NODE = 52.1305
ARG_OF_PERICENTER = 261.0822
MEAN_ANOMALY   = 98.9873

EPHEMERIS_TYPE = 0
CLASSIFICATION_TYPE = U
NORAD_CAT_ID   = 66324
ELEMENT_SET_NO = 999
REV_AT_EPOCH   = 514
BSTAR          = .27895E-2
MEAN_MOTION_DOT = .167285E-2
MEAN_MOTION_DDOT = 0

